0 SL-8 DEB
1 21187U 91009BA  13282.95654410 -.00000131  00000-0 -12577-2 0   484
2 21187 074.2467 223.6794 0176463 117.9339 314.7357 12.09155062997404
0 SL-8 DEB
1 21187U 91009BA  13287.51703856 -.00000223  00000-0 -22236-2 0   508
2 21187 074.2470 218.1426 0176508 111.4475 006.4064 12.09154459997958
0 SL-8 DEB
1 21187U 91009BA  13290.15247983 -.00000248  00000-0 -24929-2 0   515
2 21187 074.2467 214.9432 0176609 107.6894 318.3909 12.09153341998277
0 SL-8 DEB
1 21187U 91009BA  13292.48115892 -.00000317  00000-0 -32211-2 0   527
2 21187 074.2456 212.1155 0176823 104.3497 015.0600 12.09153071998558
0 SL-8 DEB
1 21187U 91009BA  13295.45961927 -.00000323  00000-0 -32886-2 0   531
2 21187 074.2449 208.4996 0176948 100.1121 020.1669 12.09151313998916
